{
  "type": "FeatureCollection",
  "features": [
    {
      "type": "Feature",
      "properties": {
        "norad_id": 34314,
        "name": "COSMOS 2251 DEB",
        "group": "cosmos-2251-debris",
        "lat": -63.76039384966557,
        "lon": -99.17681021550705,
        "alt_km": 864.8752755067699,
        "timestamp": "2025-12-19T10:50:01.595630+00:00",
        "meta_object_name": "COSMOS 2251 DEB",
        "meta_object_id": "1993-036NL",
        "meta_epoch": "2025-12-18T21:51:57.453696",
        "meta_mean_motion": 14.1743781,
        "meta_eccentricity": 0.0103128,
        "meta_inclination": 74.0057,
        "meta_ra_of_asc_node": 297.3699,
        "meta_arg_of_pericenter": 41.5868,
        "meta_mean_anomaly": 14.5745,
        "meta_ephemeris_type": 0,
        "meta_classification_type": "U",
        "meta_norad_cat_id": 34314,
        "meta_element_set_no": 999,
        "meta_rev_at_epoch": 86745,
        "meta_bstar": 0.00053368093,
        "meta_mean_motion_dot": 1.115e-05,
        "meta_mean_motion_ddot": 0,
        "tle_line1": "1 34314U 93036NL  25352.91108164  .00001115  00000+0  53368-3 0  9998",
        "tle_line2": "2 34314  74.0057 297.3699 0103128  41.5868  14.5745 14.17437810867454"
      },
      "geometry": {
        "type": "Point",
        "coordinates": [
          -99.17681021550705,
          -63.76039384966557
        ]
      }
    },
    {
      "type": "Feature",
      "properties": {
        "norad_id": 34316,
        "name": "COSMOS 2251 DEB",
        "group": "cosmos-2251-debris",
        "lat": 54.409754589229806,
        "lon": 119.91145859072206,
        "alt_km": 584.7797552496695,
        "timestamp": "2025-12-19T10:50:01.595640+00:00",
        "meta_object_name": "COSMOS 2251 DEB",
        "meta_object_id": "1993-036NN",
        "meta_epoch": "2025-12-18T23:01:26.983776",
        "meta_mean_motion": 14.92011768,
        "meta_eccentricity": 0.00087608,
        "meta_inclination": 74.0646,
        "meta_ra_of_asc_node": 324.4272,
        "meta_arg_of_pericenter": 46.1076,
        "meta_mean_anomaly": 314.0829,
        "meta_ephemeris_type": 0,
        "meta_classification_type": "U",
        "meta_norad_cat_id": 34316,
        "meta_element_set_no": 999,
        "meta_rev_at_epoch": 89302,
        "meta_bstar": 0.0012273883,
        "meta_mean_motion_dot": 0.00012442,
        "meta_mean_motion_ddot": 0,
        "tle_line1": "1 34316U 93036NN  25352.95934009  .00012442  00000+0  12274-2 0  9994",
        "tle_line2": "2 34316  74.0646 324.4272 0008760  46.1076 314.0829 14.92011768893023"
      },
      "geometry": {
        "type": "Point",
        "coordinates": [
          119.91145859072206,
          54.409754589229806
        ]
      }
    },
    {
      "type": "Feature",
      "properties": {
        "norad_id": 34317,
        "name": "COSMOS 2251 DEB",
        "group": "cosmos-2251-debris",
        "lat": 46.47435768533285,
        "lon": 42.38258211050068,
        "alt_km": 809.275837095417,
        "timestamp": "2025-12-19T10:50:01.595650+00:00",
        "meta_object_name": "COSMOS 2251 DEB",
        "meta_object_id": "1993-036NP",
        "meta_epoch": "2025-12-18T12:18:40.906944",
        "meta_mean_motion": 13.65127851,
        "meta_eccentricity": 0.03367199,
        "meta_inclination": 73.9244,
        "meta_ra_of_asc_node": 26.2539,
        "meta_arg_of_pericenter": 14.396,
        "meta_mean_anomaly": 102.2458,
        "meta_ephemeris_type": 0,
        "meta_classification_type": "U",
        "meta_norad_cat_id": 34317,
        "meta_element_set_no": 999,
        "meta_rev_at_epoch": 83698,
        "meta_bstar": 0.00042214706,
        "meta_mean_motion_dot": 4.82e-06,
        "meta_mean_motion_ddot": 0,
        "tle_line1": "1 34317U 93036NP  25352.51297346  .00000482  00000+0  42215-3 0  9993",
        "tle_line2": "2 34317  73.9244  26.2539 0336719  14.3960 102.2458 13.65127851836983"
      },
      "geometry": {
        "type": "Point",
        "coordinates": [
          42.38258211050068,
          46.47435768533285
        ]
      }
    },
    {
      "type": "Feature",
      "properties": {
        "norad_id": 34321,
        "name": "COSMOS 2251 DEB",
        "group": "cosmos-2251-debris",
        "lat": -18.433991059610808,
        "lon": 138.27367606749928,
        "alt_km": 725.8181205180363,
        "timestamp": "2025-12-19T10:50:01.595660+00:00",
        "meta_object_name": "COSMOS 2251 DEB",
        "meta_object_id": "1993-036NT",
        "meta_epoch": "2025-12-18T18:53:41.983872",
        "meta_mean_motion": 14.50080757,
        "meta_eccentricity": 0.0015949,
        "meta_inclination": 74.0277,
        "meta_ra_of_asc_node": 144.9991,
        "meta_arg_of_pericenter": 274.2278,
        "meta_mean_anomaly": 201.0433,
        "meta_ephemeris_type": 0,
        "meta_classification_type": "U",
        "meta_norad_cat_id": 34321,
        "meta_element_set_no": 999,
        "meta_rev_at_epoch": 88574,
        "meta_bstar": 0.00044155698,
        "meta_mean_motion_dot": 1.688e-05,
        "meta_mean_motion_ddot": 0,
        "tle_line1": "1 34321U 93036NT  25352.78729148  .00001688  00000+0  44156-3 0  9992",
        "tle_line2": "2 34321  74.0277 144.9991 0015949 274.2278 201.0433 14.50080757885741"
      },
      "geometry": {
        "type": "Point",
        "coordinates": [
          138.27367606749928,
          -18.433991059610808
        ]
      }
    },
    {
      "type": "Feature",
      "properties": {
        "norad_id": 34323,
        "name": "COSMOS 2251 DEB",
        "group": "cosmos-2251-debris",
        "lat": -45.28097597793269,
        "lon": -53.161162290998725,
        "alt_km": 641.9931875987177,
        "timestamp": "2025-12-19T10:50:01.595670+00:00",
        "meta_object_name": "COSMOS 2251 DEB",
        "meta_object_id": "1993-036NV",
        "meta_epoch": "2025-12-18T09:38:37.006944",
        "meta_mean_motion": 14.74606893,
        "meta_eccentricity": 0.00582637,
        "meta_inclination": 73.953,
        "meta_ra_of_asc_node": 112.0007,
        "meta_arg_of_pericenter": 154.7396,
        "meta_mean_anomaly": 262.6259,
        "meta_ephemeris_type": 0,
        "meta_classification_type": "U",
        "meta_norad_cat_id": 34323,
        "meta_element_set_no": 999,
        "meta_rev_at_epoch": 88523,
        "meta_bstar": 0.0020464281,
        "meta_mean_motion_dot": 0.00014016,
        "meta_mean_motion_ddot": 0,
        "tle_line1": "1 34323U 93036NV  25352.40181721  .00014016  00000+0  20464-2 0  9996",
        "tle_line2": "2 34323  73.9530 112.0007 0058263 154.7396 262.6259 14.74606893885230"
      },
      "geometry": {
        "type": "Point",
        "coordinates": [
          -53.161162290998725,
          -45.28097597793269
        ]
      }
    },
    {
      "type": "Feature",
      "properties": {
        "norad_id": 34325,
        "name": "COSMOS 2251 DEB",
        "group": "cosmos-2251-debris",
        "lat": -10.378075083760779,
        "lon": 4.019395240680759,
        "alt_km": 743.6670177462274,
        "timestamp": "2025-12-19T10:50:01.595680+00:00",
        "meta_object_name": "COSMOS 2251 DEB",
        "meta_object_id": "1993-036NX",
        "meta_epoch": "2025-12-18T22:18:04.081824",
        "meta_mean_motion": 14.04509128,
        "meta_eccentricity": 0.01917812,
        "meta_inclination": 73.87,
        "meta_ra_of_asc_node": 181.9013,
        "meta_arg_of_pericenter": 198.0624,
        "meta_mean_anomaly": 233.5562,
        "meta_ephemeris_type": 0,
        "meta_classification_type": "U",
        "meta_norad_cat_id": 34325,
        "meta_element_set_no": 999,
        "meta_rev_at_epoch": 85602,
        "meta_bstar": 0.0014853659,
        "meta_mean_motion_dot": 2.768e-05,
        "meta_mean_motion_ddot": 0,
        "tle_line1": "1 34325U 93036NX  25352.92921391  .00002768  00000+0  14854-2 0  9997",
        "tle_line2": "2 34325  73.8700 181.9013 0191781 198.0624 233.5562 14.04509128856025"
      },
      "geometry": {
        "type": "Point",
        "coordinates": [
          4.019395240680759,
          -10.378075083760779
        ]
      }
    },
    {
      "type": "Feature",
      "properties": {
        "norad_id": 34327,
        "name": "COSMOS 2251 DEB",
        "group": "cosmos-2251-debris",
        "lat": -66.06856352500351,
        "lon": 18.74281909469238,
        "alt_km": 603.4335290320796,
        "timestamp": "2025-12-19T10:50:01.595690+00:00",
        "meta_object_name": "COSMOS 2251 DEB",
        "meta_object_id": "1993-036NZ",
        "meta_epoch": "2025-12-18T12:59:52.288224",
        "meta_mean_motion": 14.89304888,
        "meta_eccentricity": 0.00331713,
        "meta_inclination": 73.9924,
        "meta_ra_of_asc_node": 160.2584,
        "meta_arg_of_pericenter": 335.4801,
        "meta_mean_anomaly": 80.811,
        "meta_ephemeris_type": 0,
        "meta_classification_type": "U",
        "meta_norad_cat_id": 34327,
        "meta_element_set_no": 999,
        "meta_rev_at_epoch": 89594,
        "meta_bstar": 0.00094254705,
        "meta_mean_motion_dot": 9.001e-05,
        "meta_mean_motion_ddot": 0,
        "tle_line1": "1 34327U 93036NZ  25352.54157741  .00009001  00000+0  94255-3 0  9998",
        "tle_line2": "2 34327  73.9924 160.2584 0033171 335.4801  80.8110 14.89304888895946"
      },
      "geometry": {
        "type": "Point",
        "coordinates": [
          18.74281909469238,
          -66.06856352500351
        ]
      }
    }
  ]
}